<form method="post" action="/cgi-bin/Solar">
<input name="sys" type="hidden" value="-Si" />
<input name="orb" type="hidden" value="-b1" />
<input type="hidden" name="date" value="1" />
<input type="hidden" name="img" value="-k0" />
<input type="hidden" name="utc" value="1994/2/1 13:04:41" />
<input type="hidden" name="lat" value="31°50'" />
<input type="hidden" name="ns" value="North" />
<input type="hidden" name="lon" value="111°30'" />
<input type="hidden" name="ew" value="West" />
<textarea name="elements" class="elements" rows="8" cols="70">
    P/1989 T2 (Helin-Roman-Alu 1)
Epoch 1997 Mar. 13.0 TT = JDT 2450520.5
T 1997 Mar. 26.86970 TT                                 Marsden
q   3.7148037            (2000.0)            P               Q
n   0.10302089     Peri.  215.07650     +0.31018748     +0.93673179
a   4.5066365      Node    73.47353     -0.82897125     +0.35004696
e   0.1757037      Incl.    9.74228     -0.46539272     +0.00082426
P   9.57
</textarea><br />
<center>
<input type="submit" value="Update" />
</center>
</form>

<p class="j">
<cite>Solar System Live</cite> detects these &ldquo;stealth periodic
comets&rdquo; and handles them correctly, as a click on the
&ldquo;Update&rdquo; button above will demonstrate.
</p>

<h4>Parabolic Comets</h4>

<p class="j">
IAU Circular No. 6113 of December 12, 1994 reported the following
improved orbital elements for Comet Machholz (1994r):
</p>

<form method="post" action="/cgi-bin/Solar">
<input name="sys" type="hidden" value="-Si" />
<input name="orb" type="hidden" value="-b1" />
<input type="hidden" name="date" value="1" />
<input type="hidden" name="img" value="-k1" />
<input type="hidden" name="stereo" value="-v" />
<input type="hidden" name="eyes" value="0" />
<input type="hidden" name="utc" value="1994/12/12 23:00" />
<input type="hidden" name="lat" value="42°22'" />
<input type="hidden" name="ns" value="North" />
<input type="hidden" name="lon" value="71°06'" />
<input type="hidden" name="ew" value="West" />
<input type="hidden" name="hlat" value="20°" />
<input type="hidden" name="hns" value="North" />
<input type="hidden" name="hlon" value="30°" />
<textarea name="elements" class="elements" rows="6" cols="70">
COMET MACHHOLZ (1994r)
     Improved parabolic orbital elements from MPC 24368:

     T = 1994 Oct.  2.5858 TT         Peri. = 142.7985
                                      Node  = 249.9431  2000.0
     q = 1.845571 AU                  Incl. = 101.7434
</textarea><br />
<center>
<input type="submit" value="Update" />
</center>

<p class="j">
Click on &ldquo;Update&rdquo; to view this comet's once-in-all-eternity tour of
the inner solar system.  I've taken the liberty of selecting a
<a href="stereo.html">stereo view</a> so you can better appreciate how
this comet with inclination of more then 90° streaked in from below
the ecliptic and departed northbound.  The stereo view pair is, by
default, arranged for &ldquo;cross-eyed&rdquo; viewing; if you're prefer the
&ldquo;wall-eyed&rdquo; presentation, please <label>check
here: <input type="checkbox" name="eyes" value="1" /></label>.
To see the comet's orbit with respect to the entire Solar
System, looking in toward the Sun from far beyond Neptune, press the
button below.
</p>
</form>

<form method="post" action="/cgi-bin/Solar">
<center>
<input type="submit" value="Big Picture" />
</center>

<p class="j">
From this perspective it's clear that the comet arrived from below the
ecliptic, popped up to northern realms while making its hairpin turn
around then sun, and was &ldquo;last seen heading southbound on the
interstellar&rdquo;.
</p>

<p class="j">
Note that elements for parabolic comets are in essentially the same
form as those for (most) periodic comets, with eccentricity omitted
(since it's always 1.0), and the semimajor axis, mean motion, and
period dropped since they're meaningless for a parabolic trajectory.
</p>

<br />
<input name="sys" type="hidden" value="-So" />
<input name="orb" type="hidden" value="-b1" />
<input type="hidden" name="date" value="1" />
<input type="hidden" name="img" value="-k1" />
<input type="hidden" name="utc" value="1994/12/12 23:00" />
<input type="hidden" name="lat" value="42°22'" />
<input type="hidden" name="ns" value="North" />
<input type="hidden" name="lon" value="71°06'" />
<input type="hidden" name="ew" value="West" />
<input type="hidden" name="hlat" value="20°" />
<input type="hidden" name="hns" value="North" />
<input type="hidden" name="hlon" value="0°" />
<textarea name="elements" class="elements" rows="6" cols="70"
    style="display: none">
COMET MACHHOLZ (1994r)
     Improved parabolic orbital elements from MPC 24368:

     T = 1994 Oct.  2.5858 TT         Peri. = 142.7985
                                      Node  = 249.9431  2000.0
     q = 1.845571 AU                  Incl. = 101.7434
</textarea>
</form>

<h3><a name="IAUC">IAU Circulars</a></h3>

<p class="j">
The <a href="http://cfa-www.harvard.edu/iau/services/IAUC.html"
    target="SolarSystemLiveAux">IAU
Circulars</a>, published by the
<a href="http://www.cfa.harvard.edu/iau/cbat.html"
    target="SolarSystemLiveAux">Central
Bureau for Astronomical Telegrams</a>,
provide a means for distributing time-sensitive
information to observers.  The Circulars announce novæ and supernovæ,
radio and X-ray transients, newly-discovered and recovered comets.
Companion <a href="http://cfa-www.harvard.edu/iau/services/MPEC.html"
    target="SolarSystemLiveAux">Minor
Planet Electronic Circulars</a>,
published by the
<a href="http://www.cfa.harvard.edu/iau/mpc.html"
    target="SolarSystemLiveAux">Minor Planet Center</a>,
report asteroid
discoveries and related information.  IAU Circulars used to be
delivered by telegram or post, but are now distributed by
electronic mail.  A subscription costs US$6.00 per month, and includes
E-mail delivery of Circulars as they are published, and log-in
privileges to a machine with an archive of Circulars as well as
asteroidal orbital elements from the Minor Planet Center.
You can
<a href="http://cfa-www.harvard.edu/iau/services/Subscriptions.html"
    target="SolarSystemLiveAux">subscribe to the
circulars</a> by
sending a check (In US$) payable to the &ldquo;Central Bureau for
Astronomical Telegrams&rdquo; to:
</p>

<blockquote>
        Central Bureau for Astronomical Telegrams<br />
        Mail Stop 18<br />
        Smithsonian Astrophysical Observatory<br />
        60 Garden Street<br />
        Cambridge, MA 02138<br />
        USA<br />
        <br />
        Fax: ++1 617 495 7231<br />
        E-mail: <a href="mailto:iausubs@cfa.harvard.edu">iausubs@cfa.harvard.edu</a>
</blockquote>

<p class="j">
For more information, contact the above address.
</p>

<p />
<a href="/solar/solar.html"><b>Return to <cite>Solar System Live</cite></b></a>
&nbsp; &nbsp;
<a href="help.html"><b>Other Help</b></a>
<hr />
<table align="right">
<tr><td align="center">
    <a href="http://validator.w3.org/check?uri=http://www.fourmilab.ch/solar/help/elements.html"
       class="i"
       target="_blank"><img
       src="/images/icons/valid-xhtml10.png"
       alt="Valid XHTML 1.0" height="31" width="88"
       border="0" /></a>
</td></tr>
</table>
<address>
by <a href="/">John Walker</a>
</address>
</body>
</html>
